{{- $rp := "geojson/resolve-place.html" -}}

{
  "type": "FeatureCollection",
  "features": [

    {{- /* Individual Stops follow... */ -}}

    {
      "type": "Feature",
      "properties": { "kind": "stop", "group": "stop", "city": "Khiva" },
      "geometry": { "type": "Point", "coordinates": {{ partial $rp "Uzbekistan-Khiva-AirBnB" }} }
    },
    {
      "type": "Feature",
      "properties": { "kind": "stop", "group": "stop", "city": "Buchara" },
      "geometry": { "type": "Point", "coordinates": {{ partial $rp "Uzbekistan-Buchara-Hotel" }} }
    },
    {
      "type": "Feature",
      "properties": { "kind": "stop", "group": "stop", "city": "Samarkand" },
      "geometry": { "type": "Point", "coordinates": {{ partial $rp "Uzbekistan-Samarkand-Herberge" }} }
    },
    {
      "type": "Feature",
      "properties": { "kind": "stop", "group": "stop", "city": "Tashkent" },
      "geometry": { "type": "Point", "coordinates": {{ partial $rp "Uzbekistan-Tashkent-CS_Akmal" }} }
    }
  ]
}
